OBJECT_NAME,OBJECT_ID,EPOCH,MEAN_MOTION,ECCENTRICITY,INCLINATION,RA_OF_ASC_NODE,ARG_OF_PERICENTER,MEAN_ANOMALY,EPHEMERIS_TYPE,CLASSIFICATION_TYPE,NORAD_CAT_ID,ELEMENT_SET_NO,REV_AT_EPOCH,BSTAR,MEAN_MOTION_DOT,MEAN_MOTION_DDOT
PROBA-1,2001-049B,2026-07-08T12:13:21.164736,15.07593925,.0056011,97.9600,198.7865,51.7146,308.9099,0,U,26958,999,34683,.15767703E-3,.2414E-4,0
CUTE-1 (CO-55),2003-031E,2026-07-08T11:06:19.636128,14.24348709,.00106666,98.6739,197.7541,120.0495,240.1743,0,U,27844,999,19470,.11365069E-3,.219E-5,0
CUBESAT XI-IV (CO-57),2003-031J,2026-07-08T11:05:05.892000,14.23632050,.00102587,98.6772,197.4488,137.0463,223.1519,0,U,27848,999,19440,.99678022E-4,.184E-5,0
APRIZESAT 4,2009-041D,2026-07-07T18:08:48.846624,14.83907056,.00419307,98.1405,264.4862,254.3409,105.3176,0,U,35684,999,91441,.71454417E-4,.543E-5,0
APRIZESAT 3,2009-041F,2026-07-08T08:45:11.827008,14.96295907,.0061311,98.2085,343.6064,358.3556,1.7453,0,U,35686,999,91954,.99795372E-4,.1101E-4,0
PROBA-2,2009-059B,2026-07-08T11:48:35.247168,14.54871675,.00125418,98.2457,12.5501,210.1352,149.9125,0,U,36037,999,88462,.45094923E-4,.148E-5,0
APRIZESAT 5,2011-044E,2026-07-08T06:54:42.974496,14.81119492,.0050839,98.2450,122.9271,295.5449,64.0511,0,U,37792,999,80191,.93764295E-4,.684E-5,0
APRIZESAT 6,2011-044F,2026-07-08T12:12:33.497856,14.76950087,.00436006,98.2346,100.4423,19.5222,153.7283,0,U,37793,999,80029,.92503848E-4,.605E-5,0
PROBA-V,2013-021A,2026-07-08T09:58:10.110720,14.23602514,.00054031,98.3599,166.9754,75.4178,284.7600,0,U,39159,999,68413,.50791001E-4,.75E-6,0
APRIZESAT 7,2013-066A,2026-07-08T08:27:48.651552,14.91609152,.00367724,97.7718,142.2697,139.2803,221.1176,0,U,39416,999,68438,.10743125E-3,.1034E-4,0
APRIZESAT 8,2013-066K,2026-07-08T06:16:14.910816,14.87689126,.00449226,97.8227,136.4364,215.0065,144.8197,0,U,39425,999,68280,.72230135E-4,.612E-5,0
BUGSAT-1 (TITA),2014-033E,2026-07-08T13:23:24.638784,15.15830350,.00291274,98.0423,283.3606,107.5760,252.8656,0,U,40014,999,65907,.10581265E-3,.1966E-4,0
SAUDISAT 4,2014-033G,2026-07-08T08:30:12.156768,14.79570691,.00448516,97.7609,334.7599,6.4036,353.7740,0,U,40016,999,64920,.61719185E-4,.417E-5,0
APRIZESAT 9,2014-033J,2026-07-08T07:35:29.048352,14.74246245,.00671804,97.9086,322.0014,131.6338,229.0652,0,U,40018,999,64667,.8999945E-4,.564E-5,0
APRIZESAT 10,2014-033K,2026-07-08T06:47:41.856576,14.70905244,.00781814,97.9674,315.7750,205.5135,154.2205,0,U,40019,999,64535,.7921465E-4,.455E-5,0
TECHDEMOSAT-1 (TDS-1),2014-037H,2026-07-08T10:44:33.897984,15.13617146,.00062424,98.3825,183.7731,179.6492,180.4742,0,U,40076,999,65144,.25448165E-3,.4494E-4,0
TECHNOSAT,2017-042E,2026-07-08T09:24:15.219648,15.05080876,.00180184,97.4300,346.2462,25.3253,334.8853,0,U,42829,999,48989,.17874711E-3,.2491E-4,0
FLYING LAPTOP,2017-042G,2026-07-08T13:57:34.712928,15.01284426,.00199224,97.4784,344.3054,53.3776,306.9277,0,U,42831,999,48966,.20217195E-3,.2552E-4,0
HAWK-A,2018-099H,2026-07-08T13:05:13.830144,15.24907869,.0034036,97.3903,241.5044,207.5759,152.3675,0,U,43765,999,41635,.18858626E-3,.4695E-4,0
HAWK-B,2018-099AN,2026-07-08T14:13:05.336832,15.23065510,.00307868,97.3950,240.9208,225.8199,134.0508,0,U,43794,999,41629,.1596832E-3,.3738E-4,0
HAWK-C,2018-099AT,2026-07-08T09:47:08.001600,15.28418083,.00396512,97.3880,242.3858,207.9866,151.9242,0,U,43799,999,41715,.1795052E-3,.5004E-4,0
SALSAT,2020-068K,2026-07-08T11:12:30.073536,15.30108644,.00085164,97.8859,193.8315,218.2627,141.8009,0,U,46495,999,31861,.17202586E-3,.4931E-4,0
HAWK-2C,2021-006CT,2026-07-08T01:56:23.267040,15.34927271,.00085055,97.2270,232.9754,121.2853,238.9225,0,U,47502,999,30270,.12147416E-3,.404E-4,0
HAWK-2A,2021-006CW,2026-07-08T01:59:41.440128,15.34941410,.00079786,97.2311,233.6677,124.2191,235.9810,0,U,47505,999,30270,.12126434E-3,.4034E-4,0
HAWK-2B,2021-006CZ,2026-07-07T16:28:00.218496,15.35062896,.00085436,97.2181,231.5775,124.0470,236.1586,0,U,47508,999,30264,.15236492E-3,.511E-4,0
HAWK-3B,2021-059BE,2026-07-08T13:00:48.566592,15.71414468,.00039062,97.6652,28.2983,224.4609,135.6340,0,U,48931,999,28120,.30419235E-3,.38704E-3,0
HAWK-3C,2021-059BX,2026-07-08T13:00:22.427136,15.71407356,.0004226,97.6771,34.0207,223.2923,136.8007,0,U,48948,999,28120,.30650578E-3,.38991E-3,0
HAWK-3A,2021-059CG,2026-07-08T13:00:12.644064,15.71409877,.00040692,97.6713,31.2077,227.6759,132.4159,0,U,48957,999,28120,.32418834E-3,.41263E-3,0
HAWK-5C,2022-057Y,2026-07-08T09:19:41.551104,15.52151684,.00034736,97.6616,350.4379,12.0616,348.0718,0,U,52754,999,22963,.20705345E-3,.12425E-3,0
HAWK-5B,2022-057AA,2026-07-08T09:19:24.831840,15.52155109,.00040913,97.6630,348.7895,359.5569,0.5678,0,U,52756,999,22963,.19482953E-3,.11686E-3,0
